{"type": "FeatureCollection", "features": [ {"type": "Feature", "properties": {"norad_id": 38779, "name": "GSAT-10 (GAGAN/PRN 128)", "group": "gnss", "lat": 0.011441392944871426, "lon": 90.29648625927187, "alt_km": 35779.97720406535, "timestamp": "2025-12-04T19:33:59.849679+00:00", "meta": {"OBJECT_NAME": "GSAT-10 (GAGAN/PRN 128)", "OBJECT_ID": "2012-051B", "EPOCH": "2025-12-03T18:58:13.469952", "MEAN_MOTION": 1.00269045, "ECCENTRICITY": 0.00024376, "INCLINATION": 0.0313, "RA_OF_ASC_NODE": 262.6926, "ARG_OF_PERICENTER": 235.2826, "MEAN_ANOMALY": 302.4185, "EPHEMERIS_TYPE": 0, "CLASSIFICATION_TYPE": "U", "NORAD_CAT_ID": 38779, "ELEMENT_SET_NO": 999, "REV_AT_EPOCH": 4813, "BSTAR": 0, "MEAN_MOTION_DOT": -1.47e-06, "MEAN_MOTION_DDOT": 0}, "tle": {"line1": "1 38779U 12051B   25337.79043368 -.00000147  00000+0  00000+0 0  9994", "line2": "2 38779   0.0313 262.6926 0002437 235.2826 302.4185  1.00269045 48136"}}, "geometry": {"type": "Point", "coordinates": [90.29648625927187, 0.011441392944871426]}}, {"type": "Feature", "properties": {"norad_id": 38833, "name": "GPS BIIF-3  (PRN 24)", "group": "gnss", "lat": -32.94248990644767, "lon": 122.92886952400625, "alt_km": 20310.96141860292, "timestamp": "2025-12-04T19:33:59.849689+00:00", "meta": {"OBJECT_NAME": "GPS BIIF-3  (PRN 24)", "OBJECT_ID": "2012-053A", "EPOCH": "2025-12-01T21:10:58.228896", "MEAN_MOTION": 2.00564835, "ECCENTRICITY": 0.01754817, "INCLINATION": 53.5559, "RA_OF_ASC_NODE": 151.6834, "ARG_OF_PERICENTER": 63.8436, "MEAN_ANOMALY": 297.9871, "EPHEMERIS_TYPE": 0, "CLASSIFICATION_TYPE": "U", "NORAD_CAT_ID": 38833, "ELEMENT_SET_NO": 999, "REV_AT_EPOCH": 9548, "BSTAR": 0, "MEAN_MOTION_DOT": 1.16e-06, "MEAN_MOTION_DDOT": 0}, "tle": {"line1": "1 38833U 12053A   25335.88261839  .00000116  00000+0  00000+0 0  9995", "line2": "2 38833  53.5559 151.6834 0175481  63.8436 297.9871  2.00564835 95485"}}, "geometry": {"type": "Point", "coordinates": [122.92886952400625, -32.94248990644767]}}, {"type": "Feature", "properties": {"norad_id": 38857, "name": "GSAT0103 (GALILEO-FM3)", "group": "gnss", "lat": 41.330821572948274, "lon": 143.7541434643932, "alt_km": 23222.914782119435, "timestamp": "2025-12-04T19:33:59.849702+00:00", "meta": {"OBJECT_NAME": "GSAT0103 (GALILEO-FM3)", "OBJECT_ID": "2012-055A", "EPOCH": "2025-12-01T05:01:21.613152", "MEAN_MOTION": 1.70473256, "ECCENTRICITY": 0.00023005, "INCLINATION": 55.6823, "RA_OF_ASC_NODE": 106.9832, "ARG_OF_PERICENTER": 267.1494, "MEAN_ANOMALY": 92.7944, "EPHEMERIS_TYPE": 0, "CLASSIFICATION_TYPE": "U", "NORAD_CAT_ID": 38857, "ELEMENT_SET_NO": 999, "REV_AT_EPOCH": 8163, "BSTAR": 0, "MEAN_MOTION_DOT": 4.2e-07, "MEAN_MOTION_DDOT": 0}, "tle": {"line1": "1 38857U 12055A   25335.20927793  .00000042  00000+0  00000+0 0  9995", "line2": "2 38857  55.6823 106.9832 0002300 267.1494  92.7944  1.70473256 81637"}}, "geometry": {"type": "Point", "coordinates": [143.7541434643932, 41.330821572948274]}}, {"type": "Feature", "properties": {"norad_id": 38953, "name": "BEIDOU-2 G6 (C02)", "group": "gnss", "lat": 1.100194929102176, "lon": 91.46151582328082, "alt_km": 35784.0635421467, "timestamp": "2025-12-04T19:33:59.849713+00:00", "meta": {"OBJECT_NAME": "BEIDOU-2 G6 (C02)", "OBJECT_ID": "2012-059A", "EPOCH": "2025-12-04T03:51:11.953728", "MEAN_MOTION": 1.00270564, "ECCENTRICITY": 0.00073832, "INCLINATION": 3.9259, "RA_OF_ASC_NODE": 75.5869, "ARG_OF_PERICENTER": 289.7884, "MEAN_ANOMALY": 209.711, "EPHEMERIS_TYPE": 0, "CLASSIFICATION_TYPE": "U", "NORAD_CAT_ID": 38953, "ELEMENT_SET_NO": 999, "REV_AT_EPOCH": 4795, "BSTAR": 0, "MEAN_MOTION_DOT": -1.62e-06, "MEAN_MOTION_DDOT": 0}, "tle": {"line1": "1 38953U 12059A   25338.16055502 -.00000162  00000+0  00000+0 0  9998", "line2": "2 38953   3.9259  75.5869 0007383 289.7884 209.7110  1.00270564 47955"}}, "geometry": {"type": "Point", "coordinates": [91.46151582328082, 1.100194929102176]}}, {"type": "Feature", "properties": {"norad_id": 38977, "name": "LUCH 5B (SDCM/PRN 125)", "group": "gnss", "lat": -8.764493162397713, "lon": -8.557106709777756, "alt_km": 35798.601645181574, "timestamp": "2025-12-04T19:33:59.849734+00:00", "meta": {"OBJECT_NAME": "LUCH 5B (SDCM/PRN 125)", "OBJECT_ID": "2012-061A", "EPOCH": "2025-12-04T01:12:49.528800", "MEAN_MOTION": 1.00268796, "ECCENTRICITY": 0.00076251, "INCLINATION": 10.0615, "RA_OF_ASC_NODE": 51.7844, "ARG_OF_PERICENTER": 190.1475, "MEAN_ANOMALY": 193.0165, "EPHEMERIS_TYPE": 0, "CLASSIFICATION_TYPE": "U", "NORAD_CAT_ID": 38977, "ELEMENT_SET_NO": 999, "REV_AT_EPOCH": 4765, "BSTAR": 0, "MEAN_MOTION_DOT": -1.29e-06, "MEAN_MOTION_DDOT": 0}, "tle": {"line1": "1 38977U 12061A   25338.05057325 -.00000129  00000+0  00000+0 0  9993", "line2": "2 38977  10.0615  51.7844 0007625 190.1475 193.0165  1.00268796 47651"}}, "geometry": {"type": "Point", "coordinates": [-8.557106709777756, -8.764493162397713]}}, {"type": "Feature", "properties": {"norad_id": 39155, "name": "COSMOS 2485 (747)", "group": "gnss", "lat": 38.75568538629978, "lon": -121.49929037250178, "alt_km": 19127.996199242432, "timestamp": "2025-12-04T19:33:59.849744+00:00", "meta": {"OBJECT_NAME": "COSMOS 2485 (747)", "OBJECT_ID": "2013-019A", "EPOCH": "2025-12-02T06:58:21.505152", "MEAN_MOTION": 2.13102877, "ECCENTRICITY": 0.00245683, "INCLINATION": 65.3079, "RA_OF_ASC_NODE": 80.2187, "ARG_OF_PERICENTER": 229.0905, "MEAN_ANOMALY": 130.6936, "EPHEMERIS_TYPE": 0, "CLASSIFICATION_TYPE": "U", "NORAD_CAT_ID": 39155, "ELEMENT_SET_NO": 999, "REV_AT_EPOCH": 9808, "BSTAR": 0, "MEAN_MOTION_DOT": -1.8e-07, "MEAN_MOTION_DDOT": 0}, "tle": {"line1": "1 39155U 13019A   25336.29052668 -.00000018  00000+0  00000+0 0  9992", "line2": "2 39155  65.3079  80.2187 0024568 229.0905 130.6936  2.13102877 98087"}}, "geometry": {"type": "Point", "coordinates": [-121.49929037250178, 38.75568538629978]}}, {"type": "Feature", "properties": {"norad_id": 39166, "name": "GPS BIIF-4  (PRN 27)", "group": "gnss", "lat": 43.33699521391457, "lon": -41.17050120041836, "alt_km": 19816.892597743063, "timestamp": "2025-12-04T19:33:59.849754+00:00", "meta": {"OBJECT_NAME": "GPS BIIF-4  (PRN 27)", "OBJECT_ID": "2013-023A", "EPOCH": "2025-12-02T17:50:49.750368", "MEAN_MOTION": 2.00565046, "ECCENTRICITY": 0.0137297, "INCLINATION": 54.6608, "RA_OF_ASC_NODE": 276.9746, "ARG_OF_PERICENTER": 48.5033, "MEAN_ANOMALY": 312.6627, "EPHEMERIS_TYPE": 0, "CLASSIFICATION_TYPE": "U", "NORAD_CAT_ID": 39166, "ELEMENT_SET_NO": 999, "REV_AT_EPOCH": 9194, "BSTAR": 0, "MEAN_MOTION_DOT": -3.8e-07, "MEAN_MOTION_DDOT": 0}, "tle": {"line1": "1 39166U 13023A   25336.74363137 -.00000038  00000+0  00000+0 0  9997", "line2": "2 39166  54.6608 276.9746 0137297  48.5033 312.6627  2.00565046 91947"}}, "geometry": {"type": "Point", "coordinates": [-41.17050120041836, 43.33699521391457]}}, {"type": "Feature", "properties": {"norad_id": 39199, "name": "IRNSS-1A", "group": "gnss", "lat": -2.3185915216699073, "lon": 63.37536447220441, "alt_km": 35875.032169005644, "timestamp": "2025-12-04T19:33:59.849765+00:00", "meta": {"OBJECT_NAME": "IRNSS-1A", "OBJECT_ID": "2013-034A", "EPOCH": "2025-12-02T19:49:26.431104", "MEAN_MOTION": 1.00279053, "ECCENTRICITY": 0.00216608, "INCLINATION": 35.2852, "RA_OF_ASC_NODE": 66.6964, "ARG_OF_PERICENTER": 185.4059, "MEAN_ANOMALY": 172.3398, "EPHEMERIS_TYPE": 0, "CLASSIFICATION_TYPE": "U", "NORAD_CAT_ID": 39199, "ELEMENT_SET_NO": 999, "REV_AT_EPOCH": 4539, "BSTAR": 0, "MEAN_MOTION_DOT": 6.5e-07, "MEAN_MOTION_DDOT": 0}, "tle": {"line1": "1 39199U 13034A   25336.82600036  .00000065  00000+0  00000+0 0  9995", "line2": "2 39199  35.2852  66.6964 0021660 185.4059 172.3398  1.00279053 45393"}}, "geometry": {"type": "Point", "coordinates": [63.37536447220441, -2.3185915216699073]}}, {"type": "Feature", "properties": {"norad_id": 39533, "name": "GPS BIIF-5  (PRN 30)", "group": "gnss", "lat": 43.62529177483551, "lon": -158.10568628354554, "alt_km": 20380.67092748196, "timestamp": "2025-12-04T19:33:59.849775+00:00", "meta": {"OBJECT_NAME": "GPS BIIF-5  (PRN 30)", "OBJECT_ID": "2014-008A", "EPOCH": "2025-12-03T17:38:50.271648", "MEAN_MOTION": 2.00573835, "ECCENTRICITY": 0.0078981, "INCLINATION": 53.6299, "RA_OF_ASC_NODE": 157.292, "ARG_OF_PERICENTER": 226.3864, "MEAN_ANOMALY": 132.9903, "EPHEMERIS_TYPE": 0, "CLASSIFICATION_TYPE": "U", "NORAD_CAT_ID": 39533, "ELEMENT_SET_NO": 999, "REV_AT_EPOCH": 8576, "BSTAR": 0, "MEAN_MOTION_DOT": 9.7e-07, "MEAN_MOTION_DDOT": 0}, "tle": {"line1": "1 39533U 14008A   25337.73530407  .00000097  00000+0  00000+0 0  9999", "line2": "2 39533  53.6299 157.2920 0078981 226.3864 132.9903  2.00573835 85765"}}, "geometry": {"type": "Point", "coordinates": [-158.10568628354554, 43.62529177483551]}}, {"type": "Feature", "properties": {"norad_id": 39617, "name": "ASTRA 5B (EGNOS/PRN 123)", "group": "gnss", "lat": 0.03372711534280381, "lon": 30.917080721445643, "alt_km": 35800.53287011976, "timestamp": "2025-12-04T19:33:59.849786+00:00", "meta": {"OBJECT_NAME": "ASTRA 5B (EGNOS/PRN 123)", "OBJECT_ID": "2014-011B", "EPOCH": "2025-12-04T05:16:41.264256", "MEAN_MOTION": 1.002676, "ECCENTRICITY": 0.00045355, "INCLINATION": 0.0487, "RA_OF_ASC_NODE": 14.1908, "ARG_OF_PERICENTER": 242.7487, "MEAN_ANOMALY": 279.0542, "EPHEMERIS_TYPE": 0, "CLASSIFICATION_TYPE": "U", "NORAD_CAT_ID": 39617, "ELEMENT_SET_NO": 999, "REV_AT_EPOCH": 4271, "BSTAR": 0, "MEAN_MOTION_DOT": 1.53e-06, "MEAN_MOTION_DDOT": 0}, "tle": {"line1": "1 39617U 14011B   25338.21992204  .00000153  00000+0  00000+0 0  9990", "line2": "2 39617   0.0487  14.1908 0004535 242.7487 279.0542  1.00267600 42716"}}, "geometry": {"type": "Point", "coordinates": [30.917080721445643, 0.03372711534280381]}}]}